STARLINK-2114
1 47393U 21005AW  26061.16668981  .01201394  00000+0  14174-1 0  9991
2 47393  53.0471  20.7072 0001922  92.2680 277.5772 15.58333810  5949
